     2              NAVIGATION DATA                         RINEX VERSION / TYPE
CCRINEXN V1.6.0 UX  CDDIS               17-FEB-16 23:39     PGM / RUN BY / DATE 
IGS BROADCAST EPHEMERIS FILE                                COMMENT             
    0.1304D-07  0.0000D+00 -0.5960D-07  0.5960D-07          ION ALPHA           
    0.1106D+06 -0.6554D+05 -0.2621D+06  0.3932D+06          ION BETA            
   -0.931322574615D-09-0.177635683940D-14   503808     1884 DELTA-UTC: A0,A1,T,W
    17                                                      LEAP SECONDS        
                                                            END OF HEADER       
18 16  2 17 14  0  0.0 0.484480522573D-03 0.397903932026D-11 0.000000000000D+00
    0.470000000000D+02 0.459375000000D+01 0.564523494617D-08-0.310951641920D+01
    0.191852450371D-06 0.166675617220D-01 0.625289976597D-05 0.515365893936D+04
    0.309600000000D+06 0.271946191788D-06 0.606031407389D+00-0.242143869400D-06
    0.925149898035D+00 0.236312500000D+03-0.191194052082D+01-0.835213320727D-08
    0.138577205266D-09 0.100000000000D+01 0.188400000000D+04 0.000000000000D+00
    0.200000000000D+01 0.000000000000D+00-0.111758708954D-07 0.470000000000D+02
    0.302760000000D+06 0.000000000000D+00 0.000000000000D+00 0.000000000000D+00
19 16  2 17 14  0  0.0-0.524892006069D-03-0.113686837722D-12 0.000000000000D+00
    0.540000000000D+02-0.102562500000D+03 0.415838749925D-08-0.141115456631D+01
   -0.523403286934D-05 0.112609530333D-01 0.659748911858D-05 0.515520195389D+04
    0.309600000000D+06 0.229105353355D-06-0.136471229498D+01-0.894069671631D-07
    0.972181916993D+00 0.249968750000D+03 0.681284567311D+00-0.793247327649D-08
    0.403588239642D-10 0.000000000000D+00 0.188400000000D+04 0.000000000000D+00
    0.200000000000D+01 0.000000000000D+00-0.153668224812D-07 0.540000000000D+02
    0.302400000000D+06 0.400000000000D+01 0.000000000000D+00 0.000000000000D+00
20 16  2 17 14  0  0.0 0.393446534872D-03 0.261479726760D-11 0.000000000000D+00
    0.400000000000D+02 0.675000000000D+01 0.575916825341D-08 0.862688391394D+00
    0.437721610069D-06 0.486910028849D-02 0.663474202156D-05 0.515368944168D+04
    0.309600000000D+06-0.800937414169D-07 0.554079959197D+00 0.651925802231D-07
    0.926431439142D+00 0.236343750000D+03 0.133363218784D+01-0.868857608083D-08
    0.190365070929D-09 0.100000000000D+01 0.188400000000D+04 0.000000000000D+00
    0.200000000000D+01 0.000000000000D+00-0.838190317154D-08 0.400000000000D+02
    0.302430000000D+06 0.000000000000D+00 0.000000000000D+00 0.000000000000D+00
21 16  2 17 14  0  0.0-0.510875135660D-03-0.181898940355D-11 0.000000000000D+00
    0.600000000000D+02-0.245625000000D+02 0.489270401971D-08-0.223725190796D+01
   -0.137835741043D-05 0.231390000554D-01 0.914745032787D-05 0.515367025757D+04
    0.309600000000D+06 0.279396772385D-06-0.435874738881D+00 0.372529029846D-07
    0.935978528840D+00 0.179625000000D+03-0.182831555325D+01-0.783032572116D-08
    0.526807653056D-09 0.100000000000D+01 0.188400000000D+04 0.000000000000D+00
    0.200000000000D+01 0.000000000000D+00-0.116415321827D-07 0.600000000000D+02
    0.303180000000D+06 0.000000000000D+00 0.000000000000D+00 0.000000000000D+00
22 16  2 17 14  0  0.0 0.395683571696D-03-0.591171556152D-11 0.000000000000D+00
    0.630000000000D+02 0.375000000000D+01 0.581667085912D-08 0.194457291863D+01
    0.949949026108D-07 0.766671169549D-02 0.660121440887D-05 0.515508191299D+04
    0.309600000000D+06-0.782310962677D-07 0.606799119002D+00-0.197440385819D-06
    0.923002479124D+00 0.234781250000D+03-0.202084012216D+01-0.856464246602D-08
    0.163578242262D-09 0.100000000000D+01 0.188400000000D+04 0.000000000000D+00
    0.200000000000D+01 0.000000000000D+00-0.176951289177D-07 0.630000000000D+02
    0.309138000000D+06 0.400000000000D+01 0.000000000000D+00 0.000000000000D+00
24 16  2 17 14  0  0.0-0.125281512737D-04-0.682121026330D-12 0.000000000000D+00
    0.105000000000D+03 0.748750000000D+02 0.461626381565D-08-0.278381329186D+00
    0.382214784622D-05 0.426226016134D-02 0.885128974915D-05 0.515363689613D+04
    0.309600000000D+06 0.484287738800D-07 0.270862833464D+01 0.391155481338D-07
    0.950723954566D+00 0.201875000000D+03 0.368010547036D+00-0.817426926147D-08
   -0.137505729025D-09 0.100000000000D+01 0.188400000000D+04 0.000000000000D+00
    0.200000000000D+01 0.000000000000D+00 0.232830643654D-08 0.105000000000D+03
    0.302430000000D+06 0.000000000000D+00 0.000000000000D+00 0.000000000000D+00
25 16  2 17 14  0  0.0-0.118654221296D-03-0.670752342558D-11 0.000000000000D+00
    0.380000000000D+02 0.264687500000D+02 0.411552836255D-08-0.219892341332D+01
    0.137835741043D-05 0.515275797807D-02 0.357069075108D-05 0.515355643082D+04
    0.309600000000D+06 0.167638063431D-07-0.250538625233D+01-0.577419996262D-07
    0.978719210738D+00 0.320312500000D+03 0.697208911904D+00-0.805390687475D-08
    0.136434252784D-09 0.100000000000D+01 0.188400000000D+04 0.000000000000D+00
    0.200000000000D+01 0.000000000000D+00 0.558793544769D-08 0.380000000000D+02
    0.309450000000D+06 0.000000000000D+00 0.000000000000D+00 0.000000000000D+00
26 16  2 17 14  0  0.0-0.258166808635D-03-0.155750967679D-10 0.000000000000D+00
    0.510000000000D+02 0.280000000000D+02 0.463912180947D-08-0.278163528918D+01
    0.156275928020D-05 0.858102575876D-03 0.340119004250D-05 0.515371082306D+04
    0.309600000000D+06 0.353902578354D-07-0.251260319002D+01-0.577419996262D-07
    0.960735149172D+00 0.315656250000D+03-0.109375675845D+00-0.839677833095D-08
    0.127862468842D-09 0.100000000000D+01 0.188400000000D+04 0.000000000000D+00
    0.200000000000D+01 0.000000000000D+00 0.698491930962D-08 0.510000000000D+02
    0.302418000000D+06 0.400000000000D+01 0.000000000000D+00 0.000000000000D+00
27 16  2 17 14  0  0.0 0.636884942651D-04 0.363797880709D-11 0.000000000000D+00
    0.240000000000D+02-0.922812500000D+02 0.427767818247D-08 0.165716569064D+01
   -0.486336648464D-05 0.322392559610D-02 0.669993460178D-05 0.515363932037D+04
    0.309600000000D+06 0.260770320892D-07-0.146311301164D+01 0.707805156708D-07
    0.970012950761D+00 0.253218750000D+03 0.204415257756D+00-0.812640992616D-08
   -0.102861427449D-09 0.100000000000D+01 0.188400000000D+04 0.000000000000D+00
    0.200000000000D+01 0.000000000000D+00 0.139698386192D-08 0.240000000000D+02
    0.303258000000D+06 0.400000000000D+01 0.000000000000D+00 0.000000000000D+00
29 16  2 17 14  0  0.0 0.654400791973D-03 0.795807864051D-12 0.000000000000D+00
    0.930000000000D+02-0.803125000000D+02 0.405909750256D-08-0.211189137538D+01
   -0.414997339249D-05 0.105418427847D-02 0.673905014992D-05 0.515361852455D+04
    0.309600000000D+06-0.204890966415D-07-0.140413875206D+01 0.204890966415D-07
    0.976022011120D+00 0.258625000000D+03-0.548706369971D+00-0.795997401326D-08
   -0.857178564240D-11 0.100000000000D+01 0.188400000000D+04 0.000000000000D+00
    0.200000000000D+01 0.000000000000D+00-0.102445483208D-07 0.930000000000D+02
    0.302430000000D+06 0.000000000000D+00 0.000000000000D+00 0.000000000000D+00
30 16  2 17 14  0  0.0 0.974209979177D-04 0.420641299570D-11 0.000000000000D+00
    0.650000000000D+02 0.986875000000D+02 0.442625580632D-08-0.113980591882D+01
    0.501237809658D-05 0.171230081469D-02 0.907294452190D-05 0.515364300346D+04
    0.309600000000D+06-0.353902578354D-07 0.279959921807D+01-0.875443220139D-07
    0.953450694888D+00 0.200593750000D+03 0.301751709997D+01-0.805104960477D-08
   -0.228580956246D-10 0.100000000000D+01 0.188400000000D+04 0.000000000000D+00
    0.200000000000D+01 0.000000000000D+00 0.325962901115D-08 0.650000000000D+02
    0.302430000000D+06 0.000000000000D+00 0.000000000000D+00 0.000000000000D+00
31 16  2 17 14  0  0.0 0.282254535705D-03-0.170530256582D-11 0.000000000000D+00
    0.550000000000D+02 0.797812500000D+02 0.413302930012D-08-0.127886979523D+01
    0.407546758652D-05 0.832206336781D-02 0.845082104206D-05 0.515369694710D+04
    0.309600000000D+06-0.100582838059D-06 0.276294703883D+01-0.335276126862D-07
    0.972494172469D+00 0.226937500000D+03-0.429181888668D+00-0.791497254752D-08
    0.360729311538D-10 0.100000000000D+01 0.188400000000D+04 0.000000000000D+00
    0.200000000000D+01 0.000000000000D+00-0.135041773319D-07 0.550000000000D+02
    0.302400000000D+06 0.000000000000D+00 0.000000000000D+00 0.000000000000D+00
32 16  2 17 14  0  0.0 0.389851629734D-05 0.670752342558D-11 0.000000000000D+00
    0.145000000000D+03-0.668750000000D+01 0.455626121514D-08 0.138006619076D+01
   -0.115483999252D-06 0.164064113051D-03 0.867806375027D-05 0.517915233421D+04
    0.309600000000D+06-0.186264514923D-07 0.167688750578D+01 0.186264514923D-08
    0.959858619861D+00 0.204031250000D+03 0.270266390937D-01-0.778496713227D-08
   -0.471448209139D-09 0.100000000000D+01 0.188400000000D+04 0.000000000000D+00
    0.400000000000D+01 0.630000000000D+02 0.279396772385D-08 0.145000000000D+03
    0.302430000000D+06 0.400000000000D+01 0.000000000000D+00 0.000000000000D+00
32 16  2 17 15 59 28.0 0.395113602281D-05 0.670752342558D-11 0.000000000000D+00
    0.600000000000D+01-0.471875000000D+01 0.461019203300D-08 0.240960380793D+01
   -0.171363353729D-06 0.164296012372D-03 0.898353755474D-05 0.517915248680D+04
    0.316768000000D+06-0.242143869400D-07 0.167683171447D+01-0.149011611938D-07
    0.959855218577D+00 0.201500000000D+03 0.276487450069D-01-0.778175271266D-08
   -0.474305471012D-09 0.000000000000D+00 0.188400000000D+04 0.000000000000D+00
    0.200000000000D+01 0.630000000000D+02 0.279396772385D-08 0.600000000000D+01
    0.316320000000D+06 0.400000000000D+01 0.000000000000D+00 0.000000000000D+00
